#aV2024  4 21  0  0  0.00000000     288 DD+AD WGS84 FIT  NGA
## 2311      0.00000000   300.00000000 60421 0.0000000000000
+   31     2  3  4  5  6  7  8  9 10 11 12 13 14 15 16 17 18
+         19 20 21 22 23 24 25 26 27 28 29 30 31 32  0  0  0
+          0  0  0  0  0  0  0  0  0  0  0  0  0  0  0  0  0
+          0  0  0  0  0  0  0  0  0  0  0  0  0  0  0  0  0
+          0  0  0  0  0  0  0  0  0  0  0  0  0  0  0  0  0
++         2  2  2  2  2  2  2  2  2  2  2  2  2  2  2  2  2
++         2  2  2  2  2  2  2  2  2  2  2  2  2  2  0  0  0
++         0  0  0  0  0  0  0  0  0  0  0  0  0  0  0  0  0
++         0  0  0  0  0  0  0  0  0  0  0  0  0  0  0  0  0
++         0  0  0  0  0  0  0  0  0  0  0  0  0  0  0  0  0
%c cc cc ccc ccc cccc cccc cccc cccc ccccc ccccc ccccc ccccc
%c cc cc ccc ccc cccc cccc cccc cccc ccccc ccccc ccccc ccccc
%f  0.0000000  0.000000000  0.00000000000  0.000000000000000
%f  0.0000000  0.000000000  0.00000000000  0.000000000000000
%i    0    0    0    0      0      0      0      0         0
%i    0    0    0    0      0      0      0      0         0
/*      NGA, ST. LOUIS,MO.                                  
/*   EPHEMERIS COMPUTED FROM 2 DAYS OF DATA                 
/*   EPOCHA v9 SMOOTHER                                     
/*   G2296 IERS2010 SATIGS SATAPC                           
*  2024  4 21 21 50  0.00000000
P  2  10477.730176  13482.546898 -19939.152573   -449.364922                    
V  2 -26264.322290   1611.238226 -12144.980063      0.065497                    
P  3  12477.099936  23494.624082   1051.501528    323.434340                    
V  3  -1098.522853   2233.021900 -32140.924512      0.207728                    
P  4   4539.606027  17208.981438  19691.603008    344.137621                    
V  4 -15470.852429  19670.703015 -13764.917029      0.086903                    
P  5  -3421.799310 -23170.001788  12261.175172   -169.980314                    
V  5   9685.348514  12753.186274  26513.869859     -0.013731                    
P  6  23264.172164  -5905.789894  11558.310376    310.690372                    
V  6  14348.311967   2567.672494 -27608.696038     -0.183688                    
P  7  25212.867321   6461.899582   6926.374544   -112.453203                    
V  7  -8169.807897   2026.459743  29607.658968     -0.083765                    
P  8  -2687.687766  22619.260805 -13401.339182    135.857859                    
V  8 -11166.318675  13129.702370  25017.143187      0.224254                    
P  9  14665.120139   5048.334074  21486.977705    168.818391                    
V  9 -14237.548088  23502.208158   4127.963169      0.137522                    
P 10 -15151.605815   1805.984777 -21572.910695    -11.786491                    
V 10 -12185.555134 -24960.012530   6098.865448     -0.049614                    
P 11  12628.716906 -12403.266624  19809.819999   -642.756760                    
V 11  24837.705621   3807.555811 -13512.593067     -0.102323                    
P 12  -9999.974361 -24638.835089   -401.430482   -498.669956                    
V 12   2560.496606   -889.516397 -31760.501361     -0.034011                    
P 13  12272.536969 -22104.952500  -7942.768050    644.621971                    
V 13   8383.671195  -5751.502514  29947.188549      0.030695                    
P 14  17125.065405   2188.091967 -20205.781585    382.136599                    
V 14  10008.209355  23715.704342  10833.073460      0.094806                    
P 15   -396.292241 -23044.489190 -13518.556699    150.931601                    
V 15   9476.758161 -13813.014745  24356.584891      0.040859                    
P 16  -2680.417207  21370.019137  14904.411887   -310.915552                    
V 16  -9501.343399 -17421.721270  23202.426921      0.095451                    
P 17  19547.522441  -8011.023410 -15776.130399    710.673844                    
V 17 -11005.378321  17652.960236 -21866.415789     -0.011599                    
P 18 -25479.582602  -5678.164403   5435.203464   -598.460954                    
V 18   6985.059635  -1608.680143  30946.925141     -0.064432                    
P 19  20049.389830 -14724.959764  -8930.223990    471.488298                    
V 19  -5080.684482  10306.050333 -29364.671446      0.053442                    
P 20   4868.140235 -17063.630816  19871.430774    379.332236                    
V 20  15906.367500  19417.149122  12667.650589     -0.013827                    
P 21   5274.208874  14622.158542 -21196.043505    125.998606                    
V 21 -27840.389143    958.980218  -5150.819018     -0.022204                    
P 22  13478.830561  -6666.496771 -21481.333913     -2.882454                    
V 22  10364.439085  26307.015028  -1345.097071     -0.055313                    
P 23 -18160.370408 -10653.712626 -16285.118090    206.688917                    
V 23  -8520.853901 -18813.294781  21589.778605      0.093513                    
P 24  -8268.664143 -15054.775298 -20761.320664   -461.969326                    
V 24  25397.688995  -1703.904605  -8648.510057     -0.041898                    
P 25 -16494.248059 -19281.431917   7947.074723    494.260857                    
V 25  -2407.780568 -10585.633832 -29160.661279      0.008051                    
P 26 -10968.380575  11857.297929  20888.597339    163.523609                    
V 26 -14702.080322 -22707.933957   5498.035705     -0.051876                    
P 27 -12120.521381  23150.470757  -3487.356786    -19.999306                    
V 27  -4829.651407   1789.996178  31657.914881     -0.021924                    
P 28 -24408.134001   5547.120044   8864.554810   -212.705004                    
V 28 -11204.966324  -2853.318047 -29024.893667     -0.153879                    
P 29 -12412.312342  -8382.692964  21881.599211   -601.117393                    
V 29  17024.800911 -22077.538171   1090.036485      0.012377                    
P 30  26338.718210  -1384.553154  -4047.999087   -401.786452                    
V 30   5080.147470   3646.487437  30456.191559      0.056510                    
P 31 -17709.716696  10490.534664  16788.583348   -227.978318                    
V 31 -21377.090748  -3466.340919 -19739.858262      0.000654                    
P 32 -19101.532147  11201.921191 -14304.934424   -618.309853                    
V 32   8141.168249 -16891.879868 -23944.416184     -0.002539                    
EOF
